start=new Date('2023-01-22T00:00:00.000Z').valueOf();
sats=[{"OBJECT_TYPE":"PAYLOAD","MEAN_ELEMENT_THEORY":"SGP4","CENTER_NAME":"EARTH","EPHEMERIS_TYPE":"0","APOAPSIS":"563.029","LAUNCH_DATE":"2022-08-12","REF_FRAME":"TEME","COUNTRY_CODE":"US","GP_ID":"223556438","ECCENTRICITY":"0.00000440","FILE":"3756253","TLE_LINE2":"2 53465  97.6545 144.0819 0000044  51.3511 308.7718 15.01264351 24628","OBJECT_ID":"2022-099A","MEAN_ANOMALY":"308.7718","SEMIMAJOR_AXIS":"6941.133","CLASSIFICATION_TYPE":"U","MEAN_MOTION_DDOT":"0.0000000000000","OBJECT_NAME":"STARLINK-4415","TIME_SYSTEM":"UTC","RA_OF_ASC_NODE":"144.0819","PERIAPSIS":"562.968","BSTAR":"0.00077452000000","MEAN_MOTION":"15.01264351","MEAN_MOTION_DOT":"0.00009904","DECAY_DATE":null,"INCLINATION":"97.6545","RCS_SIZE":"MEDIUM","TLE_LINE1":"1 53465U 22099A   23020.90632200  .00009904  00000-0  77452-3 0  9994","SITE":"AFWTR","REV_AT_EPOCH":"2462","EPOCH":"2023-01-20T21:45:06.220800","NORAD_CAT_ID":"53465","ELEMENT_SET_NO":"999","PERIOD":"95.919","ARG_OF_PERICENTER":"51.3511"},{"FILE":"3757022","ECCENTRICITY":"0.00011590","CLASSIFICATION_TYPE":"U","SEMIMAJOR_AXIS":"6941.116","TLE_LINE2":"2 53466  97.6562 144.4728 0001159 109.9162 250.2187 15.01269914 24677","OBJECT_ID":"2022-099B","MEAN_ANOMALY":"250.2187","APOAPSIS":"563.786","REF_FRAME":"TEME","LAUNCH_DATE":"2022-08-12","MEAN_ELEMENT_THEORY":"SGP4","CENTER_NAME":"EARTH","EPHEMERIS_TYPE":"0","OBJECT_TYPE":"PAYLOAD","COUNTRY_CODE":"US","GP_ID":"223574457","EPOCH":"2023-01-21T07:18:19.063584","SITE":"AFWTR","REV_AT_EPOCH":"2467","ARG_OF_PERICENTER":"109.9162","PERIOD":"95.919","ELEMENT_SET_NO":"999","NORAD_CAT_ID":"53466","BSTAR":"0.00275160000000","MEAN_MOTION":"15.01269914","RA_OF_ASC_NODE":"144.4728","TIME_SYSTEM":"UTC","PERIAPSIS":"562.177","MEAN_MOTION_DDOT":"0.0000000000000","OBJECT_NAME":"STARLINK-4398","TLE_LINE1":"1 53466U 22099B   23021.30438731  .00035470  00000-0  27516-2 0  9995","INCLINATION":"97.6562","RCS_SIZE":"LARGE","MEAN_MOTION_DOT":"0.00035470","DECAY_DATE":null},{"COUNTRY_CODE":"US","GP_ID":"223574959","OBJECT_TYPE":"PAYLOAD","MEAN_ELEMENT_THEORY":"SGP4","CENTER_NAME":"EARTH","EPHEMERIS_TYPE":"0","APOAPSIS":"563.817","REF_FRAME":"TEME","LAUNCH_DATE":"2022-08-12","TLE_LINE2":"2 53467  97.6568 144.4702 0001245  97.1292 263.0074 15.01279015 24674","OBJECT_ID":"2022-099C","MEAN_ANOMALY":"263.0074","SEMIMAJOR_AXIS":"6941.088","CLASSIFICATION_TYPE":"U","ECCENTRICITY":"0.00012450","FILE":"3757048","MEAN_MOTION_DOT":"0.00020421","DECAY_DATE":null,"INCLINATION":"97.6568","RCS_SIZE":"LARGE","TLE_LINE1":"1 53467U 22099C   23021.30253915  .00020421  00000-0  15891-2 0  9998","MEAN_MOTION_DDOT":"0.0000000000000","OBJECT_NAME":"STARLINK-4394","TIME_SYSTEM":"UTC","RA_OF_ASC_NODE":"144.4702","PERIAPSIS":"562.089","BSTAR":"0.00158910000000","MEAN_MOTION":"15.01279015","ELEMENT_SET_NO":"999","NORAD_CAT_ID":"53467","PERIOD":"95.918","ARG_OF_PERICENTER":"97.1292","SITE":"AFWTR","REV_AT_EPOCH":"2467","EPOCH":"2023-01-21T07:15:39.382560"},{"MEAN_MOTION_DDOT":"0.0000000000000","OBJECT_NAME":"STARLINK-4400","TIME_SYSTEM":"UTC","RA_OF_ASC_NODE":"144.1390","PERIAPSIS":"561.896","BSTAR":"0.00063951000000","MEAN_MOTION":"15.01253508","MEAN_MOTION_DOT":"0.00008163","DECAY_DATE":null,"INCLINATION":"97.6554","RCS_SIZE":"LARGE","TLE_LINE1":"1 53468U 22099D   23020.96741997  .00008163  00000-0  63951-3 0  9992","SITE":"AFWTR","REV_AT_EPOCH":"2462","EPOCH":"2023-01-20T23:13:05.085408","ELEMENT_SET_NO":"999","NORAD_CAT_ID":"53468","PERIOD":"95.920","ARG_OF_PERICENTER":"96.5578","OBJECT_TYPE":"PAYLOAD","MEAN_ELEMENT_THEORY":"SGP4","CENTER_NAME":"EARTH","EPHEMERIS_TYPE":"0","APOAPSIS":"564.167","LAUNCH_DATE":"2022-08-12","REF_FRAME":"TEME","COUNTRY_CODE":"US","GP_ID":"223558013","ECCENTRICITY":"0.00016360","FILE":"3756308","TLE_LINE2":"2 53468  97.6554 144.1390 0001636  96.5578 263.5833 15.01253508 24626","MEAN_ANOMALY":"263.5833","OBJECT_ID":"2022-099D","SEMIMAJOR_AXIS":"6941.167","CLASSIFICATION_TYPE":"U"},{"NORAD_CAT_ID":"53469","ELEMENT_SET_NO":"999","PERIOD":"95.918","ARG_OF_PERICENTER":"103.5552","SITE":"AFWTR","REV_AT_EPOCH":"2467","EPOCH":"2023-01-21T07:10:19.469280","MEAN_MOTION_DOT":"0.00026168","DECAY_DATE":null,"INCLINATION":"97.6573","RCS_SIZE":"LARGE","TLE_LINE1":"1 53469U 22099E   23021.29883645  .00026168  00000-0  20334-2 0  9999","MEAN_MOTION_DDOT":"0.0000000000000","OBJECT_NAME":"STARLINK-4399","RA_OF_ASC_NODE":"144.4669","TIME_SYSTEM":"UTC","PERIAPSIS":"562.440","BSTAR":"0.00203340000000","MEAN_MOTION":"15.01279074","TLE_LINE2":"2 53469  97.6573 144.4669 0000739 103.5552 256.5754 15.01279074 24679","OBJECT_ID":"2022-099E","MEAN_ANOMALY":"256.5754","SEMIMAJOR_AXIS":"6941.088","CLASSIFICATION_TYPE":"U","ECCENTRICITY":"0.00007390","FILE":"3757307","COUNTRY_CODE":"US","GP_ID":"223581081","OBJECT_TYPE":"PAYLOAD","MEAN_ELEMENT_THEORY":"SGP4","CENTER_NAME":"EARTH","EPHEMERIS_TYPE":"0","APOAPSIS":"563.466","LAUNCH_DATE":"2022-08-12","REF_FRAME":"TEME"},{"RA_OF_ASC_NODE":"144.0730","TIME_SYSTEM":"UTC","PERIAPSIS":"561.725","MEAN_MOTION_DDOT":"0.0000000000000","OBJECT_NAME":"STARLINK-4393","BSTAR":"0.00139510000000","MEAN_MOTION":"15.01246648","INCLINATION":"97.6574","RCS_SIZE":"LARGE","MEAN_MOTION_DOT":"0.00017899","DECAY_DATE":null,"TLE_LINE1":"1 53470U 22099F   23020.89916588  .00017899  00000-0  13951-2 0  9997","EPOCH":"2023-01-20T21:34:47.932032","SITE":"AFWTR","REV_AT_EPOCH":"2461","NORAD_CAT_ID":"53470","ELEMENT_SET_NO":"999","ARG_OF_PERICENTER":"90.8909","PERIOD":"95.920","OBJECT_TYPE":"PAYLOAD","APOAPSIS":"564.381","REF_FRAME":"TEME","LAUNCH_DATE":"2022-08-12","MEAN_ELEMENT_THEORY":"SGP4","CENTER_NAME":"EARTH","EPHEMERIS_TYPE":"0","COUNTRY_CODE":"US","GP_ID":"223556449","ECCENTRICITY":"0.00019130","FILE":"3756254","SEMIMAJOR_AXIS":"6941.188","TLE_LINE2":"2 53470  97.6574 144.0730 0001913  90.8909 269.2534 15.01246648 24618","OBJECT_ID":"2022-099F","MEAN_ANOMALY":"269.2534","CLASSIFICATION_TYPE":"U"},{"NORAD_CAT_ID":"53471","ELEMENT_SET_NO":"999","PERIOD":"95.920","ARG_OF_PERICENTER":"100.9930","SITE":"AFWTR","REV_AT_EPOCH":"2467","EPOCH":"2023-01-21T07:04:59.555136","MEAN_MOTION_DOT":"0.00002120","DECAY_DATE":null,"INCLINATION":"97.6593","RCS_SIZE":"LARGE","TLE_LINE1":"1 53471U 22099G   23021.29513374  .00002120  00000-0  16962-3 0  9996","MEAN_MOTION_DDOT":"0.0000000000000","OBJECT_NAME":"STARLINK-4316","RA_OF_ASC_NODE":"144.4618","TIME_SYSTEM":"UTC","PERIAPSIS":"561.766","BSTAR":"0.00016962000000","MEAN_MOTION":"15.01254897","TLE_LINE2":"2 53471  97.6593 144.4618 0001817 100.9930 259.1499 15.01254897 24678","OBJECT_ID":"2022-099G","MEAN_ANOMALY":"259.1499","SEMIMAJOR_AXIS":"6941.163","CLASSIFICATION_TYPE":"U","ECCENTRICITY":"0.00018170","FILE":"3756788","GP_ID":"223568717","COUNTRY_CODE":"US","OBJECT_TYPE":"PAYLOAD","MEAN_ELEMENT_THEORY":"SGP4","EPHEMERIS_TYPE":"0","CENTER_NAME":"EARTH","APOAPSIS":"564.289","LAUNCH_DATE":"2022-08-12","REF_FRAME":"TEME"},{"SITE":"AFWTR","REV_AT_EPOCH":"2461","EPOCH":"2023-01-20T21:31:46.712352","PERIOD":"95.919","ARG_OF_PERICENTER":"85.3028","ELEMENT_SET_NO":"999","NORAD_CAT_ID":"53472","MEAN_MOTION":"15.01260527","BSTAR":"0.00144990000000","MEAN_MOTION_DDOT":"0.0000000000000","OBJECT_NAME":"STARLINK-4447","TIME_SYSTEM":"UTC","RA_OF_ASC_NODE":"144.0701","PERIAPSIS":"561.880","TLE_LINE1":"1 53472U 22099H   23020.89706843  .00018613  00000-0  14499-2 0  9993","MEAN_MOTION_DOT":"0.00018613","DECAY_DATE":null,"INCLINATION":"97.6572","RCS_SIZE":"LARGE","FILE":"3756254","ECCENTRICITY":"0.00016290","CLASSIFICATION_TYPE":"U","TLE_LINE2":"2 53472  97.6572 144.0701 0001629  85.3028 274.8382 15.01260527 24616","OBJECT_ID":"2022-099H","MEAN_ANOMALY":"274.8382","SEMIMAJOR_AXIS":"6941.145","MEAN_ELEMENT_THEORY":"SGP4","CENTER_NAME":"EARTH","EPHEMERIS_TYPE":"0","APOAPSIS":"564.141","REF_FRAME":"TEME","LAUNCH_DATE":"2022-08-12","OBJECT_TYPE":"PAYLOAD","COUNTRY_CODE":"US","GP_ID":"223556455"},{"COUNTRY_CODE":"US","GP_ID":"223568716","OBJECT_TYPE":"PAYLOAD","REF_FRAME":"TEME","LAUNCH_DATE":"2022-08-12","APOAPSIS":"563.946","CENTER_NAME":"EARTH","EPHEMERIS_TYPE":"0","MEAN_ELEMENT_THEORY":"SGP4","SEMIMAJOR_AXIS":"6941.134","OBJECT_ID":"2022-099J","MEAN_ANOMALY":"256.3234","TLE_LINE2":"2 53473  97.6586 144.4682 0001363 103.8142 256.3234 15.01264017 24677","CLASSIFICATION_TYPE":"U","ECCENTRICITY":"0.00013630","FILE":"3756788","RCS_SIZE":"LARGE","INCLINATION":"97.6586","DECAY_DATE":null,"MEAN_MOTION_DOT":"0.00001590","TLE_LINE1":"1 53473U 22099J   23021.29142205  .00001590  00000-0  12836-3 0  9995","PERIAPSIS":"562.053","RA_OF_ASC_NODE":"144.4682","TIME_SYSTEM":"UTC","OBJECT_NAME":"STARLINK-4383","MEAN_MOTION_DDOT":"0.0000000000000","BSTAR":"0.00012836000000","MEAN_MOTION":"15.01264017","NORAD_CAT_ID":"53473","ELEMENT_SET_NO":"999","ARG_OF_PERICENTER":"103.8142","PERIOD":"95.919","EPOCH":"2023-01-21T06:59:38.865120","REV_AT_EPOCH":"2467","SITE":"AFWTR"},{"PERIOD":"95.918","ARG_OF_PERICENTER":"87.2913","NORAD_CAT_ID":"53474","ELEMENT_SET_NO":"999","SITE":"AFWTR","REV_AT_EPOCH":"2472","EPOCH":"2023-01-21T14:49:13.738368","TLE_LINE1":"1 53474U 22099K   23021.61752012  .00040339  00000-0  31251-2 0  9990","MEAN_MOTION_DOT":"0.00040339","DECAY_DATE":null,"INCLINATION":"97.6557","RCS_SIZE":"LARGE","BSTAR":"0.00312510000000","MEAN_MOTION":"15.01285816","MEAN_MOTION_DDOT":"0.0000000000000","OBJECT_NAME":"STARLINK-4445","RA_OF_ASC_NODE":"144.8012","TIME_SYSTEM":"UTC","PERIAPSIS":"561.259","CLASSIFICATION_TYPE":"U","TLE_LINE2":"2 53474  97.6557 144.8012 0002411  87.2913 272.8587 15.01285816 24723","MEAN_ANOMALY":"272.8587","OBJECT_ID":"2022-099K","SEMIMAJOR_AXIS":"6941.067","FILE":"3757311","ECCENTRICITY":"0.00024110","GP_ID":"223580973","COUNTRY_CODE":"US","MEAN_ELEMENT_THEORY":"SGP4","CENTER_NAME":"EARTH","EPHEMERIS_TYPE":"0","APOAPSIS":"564.606","LAUNCH_DATE":"2022-08-12","REF_FRAME":"TEME","OBJECT_TYPE":"PAYLOAD"}];
